NORAD_CAT_ID,OBJECT_NAME,OBJECT_TYPE,EPOCH,MEAN_MOTION,ECCENTRICITY,INCLINATION,RA_OF_ASC_NODE,ARG_OF_PERICENTER,MEAN_ANOMALY,BSTAR,MEAN_MOTION_DOT,MEAN_MOTION_DDOT,TLE_LINE0,TLE_LINE1,TLE_LINE2,SEMIMAJOR_AXIS,PERIOD,APOGEE,PERIGEE,DECAYED
52284.0,STARLINK-3561,PAYLOAD,2023-05-03 14:44:06,15.08838846,0.0001153,53.2162,92.6891,99.0928,261.0194,1.0829e-05,-1.15e-06,0.0,0 STARLINK-3561,1 52284U 22041Z   23123.61395952 -.00000115  00000-0  10829-4 0  9993,2 52284  53.2162  92.6891 0001153  99.0928 261.0194 15.08838846 57336,6917.884,95.438,540.547,538.951,0.0
52284.0,STARLINK-3561,PAYLOAD,2023-05-04 05:02:34,15.08839974,0.0001463,53.2169,90.0137,105.4034,254.712,-1.6732e-05,-5.54e-06,0.0,0 STARLINK-3561,1 52284U 22041Z   23124.21012264 -.00000554  00000-0 -16732-4 0  9999,2 52284  53.2169  90.0137 0001463 105.4034 254.7120 15.08839974 58648,6917.88,95.438,540.758,538.733,0.0
52284.0,STARLINK-3561,PAYLOAD,2023-05-04 06:37:57,15.08836573,0.0001471,53.2178,89.7185,107.3615,252.7538,-1.8456e-05,-5.82e-06,0.0,0 STARLINK-3561,1 52284U 22041Z   23124.27636559 -.00000582  00000-0 -18456-4 0  9990,2 52284  53.2178  89.7185 0001471 107.3615 252.7538 15.08836573 57430,6917.891,95.438,540.773,538.738,0.0
52284.0,STARLINK-3561,PAYLOAD,2023-05-05 06:28:44,15.08843529,0.0001289,53.2169,85.2563,102.5423,257.5714,7.1464e-05,8.5e-06,0.0,0 STARLINK-3561,1 52284U 22041Z   23125.26995912  .00000850  00000-0  71464-4 0  9995,2 52284  53.2169  85.2563 0001289 102.5423 257.5714 15.08843529 58802,6917.87,95.437,540.626,538.843,0.0
52284.0,STARLINK-3561,PAYLOAD,2023-05-06 04:44:09,15.08838177,0.0001253,53.2166,81.0919,94.3753,265.7382,4.4744e-05,4.24e-06,0.0,0 STARLINK-3561,1 52284U 22041Z   23126.19732687  .00000424  00000-0  44744-4 0  9994,2 52284  53.2166  81.0919 0001253  94.3753 265.7382 15.08838177 58943,6917.886,95.438,540.618,538.884,0.0
52284.0,STARLINK-3561,PAYLOAD,2023-05-06 06:19:32,15.08840606,0.0001255,53.2166,80.7942,94.5902,265.5234,6.1777e-05,6.95e-06,0.0,0 STARLINK-3561,1 52284U 22041Z   23126.26356493  .00000695  00000-0  61777-4 0  9994,2 52284  53.2166  80.7942 0001255  94.5902 265.5234 15.08840606 57735,6917.879,95.438,540.612,538.875,0.0
52284.0,STARLINK-3561,PAYLOAD,2023-05-07 02:59:31,15.08861355,0.0001194,53.2168,76.9269,94.1352,265.9776,0.00015535,2.187e-05,0.0,0 STARLINK-3561,1 52284U 22041Z   23127.12466701  .00002187  00000-0  15535-3 0  9992,2 52284  53.2168  76.9269 0001194  94.1352 265.9776 15.08861355 59082,6917.815,95.436,540.506,538.854,0.0
52284.0,STARLINK-3561,PAYLOAD,2023-05-08 04:25:43,15.08834991,9.79e-05,53.2168,72.1696,92.5475,267.5629,1.6943e-05,-1.8e-07,0.0,0 STARLINK-3561,1 52284U 22041Z   23128.18453087 -.00000018  00000-0  16943-4 0  9999,2 52284  53.2168  72.1696 0000979  92.5475 267.5629 15.08834991 59241,6917.896,95.438,540.438,539.083,0.0
52284.0,STARLINK-3561,PAYLOAD,2023-05-08 06:01:06,15.08837002,9.83e-05,53.217,71.8727,91.3755,268.735,4.0168e-05,3.52e-06,0.0,0 STARLINK-3561,1 52284U 22041Z   23128.25076999  .00000352  00000-0  40168-4 0  9996,2 52284  53.2170  71.8727 0000983  91.3755 268.7350 15.08837002 58034,6917.89,95.438,540.435,539.075,0.0
52284.0,STARLINK-3561,PAYLOAD,2023-05-09 02:41:06,15.0884314,8.26e-05,53.2162,68.0073,85.4643,274.6443,3.4024e-05,2.54e-06,0.0,0 STARLINK-3561,1 52284U 22041Z   23129.11188617  .00000254  00000-0  34024-4 0  9998,2 52284  53.2162  68.0073 0000826  85.4643 274.6443 15.08843140 59381,6917.871,95.437,540.307,539.164,0.0
52284.0,STARLINK-3561,PAYLOAD,2023-05-10 02:31:54,15.08847457,7.38e-05,53.2165,63.5478,86.937,273.1707,0.00033078,4.982e-05,0.0,0 STARLINK-3561,1 52284U 22041Z   23130.10548673  .00004982  00000-0  33078-3 0  9990,2 52284  53.2165  63.5478 0000738  86.9370 273.1707 15.08847457 58312,6917.858,95.437,540.233,539.212,0.0
52284.0,STARLINK-3561,PAYLOAD,2023-05-11 02:22:41,15.08843875,9.76e-05,53.2174,59.091,110.1376,249.9721,0.0002143,3.125e-05,0.0,0 STARLINK-3561,1 52284U 22041Z   23131.09908856  .00003125  00000-0  21430-3 0  9999,2 52284  53.2174  59.0910 0000976 110.1376 249.9721 15.08843875 59681,6917.869,95.437,540.409,539.058,0.0
52284.0,STARLINK-3561,PAYLOAD,2023-05-11 23:02:42,15.08832197,0.0001443,53.2174,55.2276,125.1852,234.9276,-0.00016371,-2.892e-05,0.0,0 STARLINK-3561,1 52284U 22041Z   23131.96021300 -.00002892  00000-0 -16371-3 0  9995,2 52284  53.2174  55.2276 0001443 125.1852 234.9276 15.08832197 59818,6917.904,95.438,540.767,538.771,0.0
52284.0,STARLINK-3561,PAYLOAD,2023-05-12 02:13:28,15.08835822,9.84e-05,53.2166,54.6305,114.3582,245.7513,-8.5506e-05,-1.648e-05,0.0,0 STARLINK-3561,1 52284U 22041Z   23132.09269338 -.00001648  00000-0 -85506-4 0  9990,2 52284  53.2166  54.6305 0000984 114.3582 245.7513 15.08835822 58613,6917.893,95.438,540.439,539.077,0.0
52284.0,STARLINK-3561,PAYLOAD,2023-05-13 02:04:15,15.08852059,0.0001041,53.2152,50.1696,117.0873,243.0226,0.00044375,6.784e-05,0.0,0 STARLINK-3561,1 52284U 22041Z   23133.08628701  .00006784  00000-0  44375-3 0  9995,2 52284  53.2152  50.1696 0001041 117.0873 243.0226 15.08852059 59984,6917.844,95.437,540.429,538.988,0.0
52284.0,STARLINK-3561,PAYLOAD,2023-05-14 01:55:02,15.08843064,0.0001236,53.2165,45.7063,77.6513,282.4618,0.00017085,2.432e-05,0.0,0 STARLINK-3561,1 52284U 22041Z   23134.07989510  .00002432  00000-0  17085-3 0  9997,2 52284  53.2165  45.7063 0001236  77.6513 282.4618 15.08843064 60131,6917.871,95.437,540.591,538.881,0.0
52284.0,STARLINK-3561,PAYLOAD,2023-05-15 11:18:08,15.0884259,0.0001236,53.2163,39.4585,96.9079,263.2053,0.00013481,1.858e-05,0.0,0 STARLINK-3561,1 52284U 22041Z   23135.47093068  .00001858  00000-0  13481-3 0  9993,2 52284  53.2163  39.4585 0001236  96.9079 263.2053 15.08842590 60345,6917.872,95.437,540.593,538.882,0.0
52284.0,STARLINK-3561,PAYLOAD,2023-05-16 03:12:00,15.0883965,0.0001439,53.2171,36.4853,95.4532,264.6625,5.4639e-05,5.82e-06,0.0,0 STARLINK-3561,1 52284U 22041Z   23136.13333579  .00000582  00000-0  54639-4 0  9995,2 52284  53.2171  36.4853 0001439  95.4532 264.6625 15.08839650 60446,6917.881,95.438,540.742,538.751,0.0
52284.0,STARLINK-3561,PAYLOAD,2023-05-17 15:45:52,15.08835581,0.0001257,53.2168,29.6505,75.4348,284.6783,0.00013009,1.783e-05,0.0,0 STARLINK-3561,1 52284U 22041Z   23137.65685903  .00001783  00000-0  13009-3 0  9993,2 52284  53.2168  29.6505 0001257  75.4348 284.6783 15.08835581 60672,6917.894,95.438,540.628,538.889,0.0
52284.0,STARLINK-3561,PAYLOAD,2023-05-17 20:32:02,15.08834872,0.0001247,53.2168,28.7576,75.7482,284.3649,9.4272e-05,1.213e-05,0.0,0 STARLINK-3561,1 52284U 22041Z   23137.85557997  .00001213  00000-0  94272-4 0  9996,2 52284  53.2168  28.7576 0001247  75.7482 284.3649 15.08834872 59488,6917.896,95.438,540.624,538.898,0.0
52284.0,STARLINK-3561,PAYLOAD,2023-05-18 01:18:11,15.08839469,0.0001264,53.2174,27.8651,79.1569,280.9565,0.00011762,1.585e-05,0.0,0 STARLINK-3561,1 52284U 22041Z   23138.05429792  .00001585  00000-0  11762-3 0  9994,2 52284  53.2174  27.8651 0001264  79.1569 280.9565 15.08839469 59512,6917.882,95.438,540.621,538.873,0.0
52284.0,STARLINK-3561,PAYLOAD,2023-05-18 18:47:27,15.08766447,0.000166,53.2175,24.5943,89.3752,270.743,0.0010425,0.00016309,0.0,0 STARLINK-3561,1 52284U 22041Z   23138.78295147  .00016309  00000-0  10425-2 0  9993,2 52284  53.2175  24.5943 0001660  89.3752 270.7430 15.08766447 59623,6918.105,95.442,541.119,538.822,0.0
52284.0,STARLINK-3561,PAYLOAD,2023-05-19 01:08:58,15.08832468,0.0001286,53.2173,23.405,83.6741,276.4398,0.00021043,3.062e-05,0.0,0 STARLINK-3561,1 52284U 22041Z   23139.04790166  .00003062  00000-0  21043-3 0  9995,2 52284  53.2173  23.4050 0001286  83.6741 276.4398 15.08832468 60880,6917.903,95.438,540.658,538.879,0.0
52284.0,STARLINK-3561,PAYLOAD,2023-05-19 21:48:59,15.08839262,0.0001176,53.2175,19.5386,81.1052,279.0073,7.6936e-05,9.37e-06,0.0,0 STARLINK-3561,1 52284U 22041Z   23139.90902219  .00000937  00000-0  76936-4 0  9994,2 52284  53.2175  19.5386 0001176  81.1052 279.0073 15.08839262 59792,6917.883,95.438,540.561,538.934,0.0
52284.0,STARLINK-3561,PAYLOAD,2023-05-20 00:59:45,15.08846323,0.000117,53.2175,18.9439,78.9198,281.1926,5.1362e-05,5.3e-06,0.0,0 STARLINK-3561,1 52284U 22041Z   23140.04149773  .00000530  00000-0  51362-4 0  9994,2 52284  53.2175  18.9439 0001170  78.9198 281.1926 15.08846323 61030,6917.861,95.437,540.535,538.917,0.0
52284.0,STARLINK-3561,PAYLOAD,2023-05-20 20:04:22,15.08852173,0.0001101,53.2182,15.3748,79.5816,280.53,0.00015571,2.192e-05,0.0,0 STARLINK-3561,1 52284U 22041Z   23140.83637083  .00002192  00000-0  15571-3 0  9994,2 52284  53.2182  15.3748 0001101  79.5816 280.5300 15.08852173 59935,6917.843,95.437,540.47,538.947,0.0
52284.0,STARLINK-3561,PAYLOAD,2023-05-20 23:15:08,15.08859226,0.0001164,53.217,14.7806,81.3811,278.7313,0.00030143,4.515e-05,0.0,0 STARLINK-3561,1 52284U 22041Z   23140.96884802  .00004515  00000-0  30143-3 0  9994,2 52284  53.2170  14.7806 0001164  81.3811 278.7313 15.08859226 61173,6917.822,95.436,540.492,538.881,0.0
52284.0,STARLINK-3561,PAYLOAD,2023-05-21 15:09:01,15.08832028,0.0001227,53.2166,11.8079,84.3085,275.8047,-7.6893e-05,-1.511e-05,0.0,0 STARLINK-3561,1 52284U 22041Z   23141.63126455 -.00001511  00000-0 -76893-4 0  9990,2 52284  53.2166  11.8079 0001227  84.3085 275.8047 15.08832028 61278,6917.905,95.438,540.619,538.921,0.0
52284.0,STARLINK-3561,PAYLOAD,2023-05-21 21:30:34,15.08827039,0.0001128,53.2174,10.6154,88.8247,271.2874,-0.00011316,-2.088e-05,0.0,0 STARLINK-3561,1 52284U 22041Z   23141.89622956 -.00002088  00000-0 -11316-3 0  9993,2 52284  53.2174  10.6154 0001128  88.8247 271.2874 15.08827039 60090,6917.92,95.438,540.565,539.005,0.0
52284.0,STARLINK-3561,PAYLOAD,2023-05-22 08:38:16,15.08827474,0.0001212,53.2175,8.534,81.2465,278.8665,1.4769e-06,-2.64e-06,0.0,0 STARLINK-3561,1 52284U 22041Z   23142.35991309 -.00000264  00000-0  14769-5 0  9996,2 52284  53.2175   8.5340 0001212  81.2465 278.8665 15.08827474 60169,6917.919,95.438,540.622,538.945,0.0
